STARLINK-30069          
1 56834U 23079M   26067.48212902 -.00002416  00000+0 -80472-4 0  9995
2 56834  42.9986 110.4464 0000469 272.6695  87.4103 15.26726881152740
STARLINK-32403          
1 61629U 24191J   26068.27755102  .00000106  00000+0  13365-4 0  9990
2 61629  43.0031 156.8087 0001119 233.4730 126.6018 15.27567609 77473
